{
  "type": "FeatureCollection",
  "features": [
    {
      "type": "Feature",
      "properties": {
        "norad_id": 66385,
        "name": "STARLINK-35659",
        "group": "last-30-days",
        "lat": -32.11728724825901,
        "lon": 157.60794022229828,
        "alt_km": 451.8991400635423,
        "timestamp": "2025-12-03T04:52:28.419404+00:00",
        "meta_object_name": "STARLINK-35659",
        "meta_object_id": "2025-257F",
        "meta_epoch": "2025-12-02T20:00:03.000384",
        "meta_mean_motion": 15.3968554,
        "meta_eccentricity": 0.000146,
        "meta_inclination": 53.1591,
        "meta_ra_of_asc_node": 311.2757,
        "meta_arg_of_pericenter": 96.4721,
        "meta_mean_anomaly": 234.5814,
        "meta_ephemeris_type": 0,
        "meta_classification_type": "U",
        "meta_norad_cat_id": 66385,
        "meta_element_set_no": 999,
        "meta_rev_at_epoch": 490,
        "meta_bstar": -0.0036922,
        "meta_mean_motion_dot": -0.00145616,
        "meta_mean_motion_ddot": 0,
        "tle_line1": "1 66385U 25257F   25336.83336806 -.00145616  00000+0 -36922-2 0  9993",
        "tle_line2": "2 66385  53.1591 311.2757 0001460  96.4721 234.5814 15.39685540  4906"
      },
      "geometry": {
        "type": "Point",
        "coordinates": [
          157.60794022229828,
          -32.11728724825901
        ]
      }
    },
    {
      "type": "Feature",
      "properties": {
        "norad_id": 66386,
        "name": "STARLINK-35651",
        "group": "last-30-days",
        "lat": -52.64024538967825,
        "lon": -151.42481070713194,
        "alt_km": 439.83347613387014,
        "timestamp": "2025-12-03T04:52:28.419414+00:00",
        "meta_object_name": "STARLINK-35651",
        "meta_object_id": "2025-257G",
        "meta_epoch": "2025-12-02T20:00:03.000384",
        "meta_mean_motion": 15.45698106,
        "meta_eccentricity": 0.0001184,
        "meta_inclination": 53.1593,
        "meta_ra_of_asc_node": 311.2057,
        "meta_arg_of_pericenter": 108.4101,
        "meta_mean_anomaly": 257.5049,
        "meta_ephemeris_type": 0,
        "meta_classification_type": "U",
        "meta_norad_cat_id": 66386,
        "meta_element_set_no": 999,
        "meta_rev_at_epoch": 490,
        "meta_bstar": -0.04598,
        "meta_mean_motion_dot": -0.02011281,
        "meta_mean_motion_ddot": 0,
        "tle_line1": "1 66386U 25257G   25336.83336806 -.02011281  00000+0 -45980-1 0  9999",
        "tle_line2": "2 66386  53.1593 311.2057 0001184 108.4101 257.5049 15.45698106  4905"
      },
      "geometry": {
        "type": "Point",
        "coordinates": [
          -151.42481070713194,
          -52.64024538967825
        ]
      }
    },
    {
      "type": "Feature",
      "properties": {
        "norad_id": 66387,
        "name": "STARLINK-35661",
        "group": "last-30-days",
        "lat": -52.88276122428386,
        "lon": -148.36834264674386,
        "alt_km": 439.7667571430793,
        "timestamp": "2025-12-03T04:52:28.419424+00:00",
        "meta_object_name": "STARLINK-35661",
        "meta_object_id": "2025-257H",
        "meta_epoch": "2025-12-02T20:00:03.000384",
        "meta_mean_motion": 15.45684688,
        "meta_eccentricity": 0.000101,
        "meta_inclination": 53.1592,
        "meta_ra_of_asc_node": 311.2023,
        "meta_arg_of_pericenter": 110.5007,
        "meta_mean_anomaly": 257.303,
        "meta_ephemeris_type": 0,
        "meta_classification_type": "U",
        "meta_norad_cat_id": 66387,
        "meta_element_set_no": 999,
        "meta_rev_at_epoch": 490,
        "meta_bstar": -0.045961,
        "meta_mean_motion_dot": -0.02009607,
        "meta_mean_motion_ddot": 0,
        "tle_line1": "1 66387U 25257H   25336.83336806 -.02009607  00000+0 -45961-1 0  9998",
        "tle_line2": "2 66387  53.1592 311.2023 0001010 110.5007 257.3030 15.45684688  4903"
      },
      "geometry": {
        "type": "Point",
        "coordinates": [
          -148.36834264674386,
          -52.88276122428386
        ]
      }
    },
    {
      "type": "Feature",
      "properties": {
        "norad_id": 66388,
        "name": "STARLINK-35647",
        "group": "last-30-days",
        "lat": -52.73316372621048,
        "lon": -130.76262107119035,
        "alt_km": 431.33161922394356,
        "timestamp": "2025-12-03T04:52:28.419434+00:00",
        "meta_object_name": "STARLINK-35647",
        "meta_object_id": "2025-257J",
        "meta_epoch": "2025-12-02T20:00:03.000384",
        "meta_mean_motion": 15.4855099,
        "meta_eccentricity": 8.09e-05,
        "meta_inclination": 53.1589,
        "meta_ra_of_asc_node": 311.1887,
        "meta_arg_of_pericenter": 107.9431,
        "meta_mean_anomaly": 266.7093,
        "meta_ephemeris_type": 0,
        "meta_classification_type": "U",
        "meta_norad_cat_id": 66388,
        "meta_element_set_no": 999,
        "meta_rev_at_epoch": 490,
        "meta_bstar": -0.042195,
        "meta_mean_motion_dot": -0.0203612,
        "meta_mean_motion_ddot": 0,
        "tle_line1": "1 66388U 25257J   25336.83336806 -.02036120  00000+0 -42195-1 0  9995",
        "tle_line2": "2 66388  53.1589 311.1887 0000809 107.9431 266.7093 15.48550990  4907"
      },
      "geometry": {
        "type": "Point",
        "coordinates": [
          -130.76262107119035,
          -52.73316372621048
        ]
      }
    },
    {
      "type": "Feature",
      "properties": {
        "norad_id": 66389,
        "name": "STARLINK-35694",
        "group": "last-30-days",
        "lat": -51.935333833853605,
        "lon": -123.80711713381686,
        "alt_km": 424.6162429033475,
        "timestamp": "2025-12-03T04:52:28.419445+00:00",
        "meta_object_name": "STARLINK-35694",
        "meta_object_id": "2025-257K",
        "meta_epoch": "2025-12-02T20:00:03.000384",
        "meta_mean_motion": 15.49231507,
        "meta_eccentricity": 0.0001581,
        "meta_inclination": 53.1583,
        "meta_ra_of_asc_node": 311.1829,
        "meta_arg_of_pericenter": 85.4362,
        "meta_mean_anomaly": 291.5057,
        "meta_ephemeris_type": 0,
        "meta_classification_type": "U",
        "meta_norad_cat_id": 66389,
        "meta_element_set_no": 999,
        "meta_rev_at_epoch": 490,
        "meta_bstar": 0.0015443,
        "meta_mean_motion_dot": 0.00086155,
        "meta_mean_motion_ddot": 0,
        "tle_line1": "1 66389U 25257K   25336.83336806  .00086155  00000+0  15443-2 0  9992",
        "tle_line2": "2 66389  53.1583 311.1829 0001581  85.4362 291.5057 15.49231507  4906"
      },
      "geometry": {
        "type": "Point",
        "coordinates": [
          -123.80711713381686,
          -51.935333833853605
        ]
      }
    },
    {
      "type": "Feature",
      "properties": {
        "norad_id": 66390,
        "name": "STARLINK-35665",
        "group": "last-30-days",
        "lat": -34.7220951362958,
        "lon": -81.96141578102502,
        "alt_km": 423.628662732287,
        "timestamp": "2025-12-03T04:52:28.419455+00:00",
        "meta_object_name": "STARLINK-35665",
        "meta_object_id": "2025-257L",
        "meta_epoch": "2025-12-02T20:00:03.000384",
        "meta_mean_motion": 15.49299848,
        "meta_eccentricity": 0.0001263,
        "meta_inclination": 53.1584,
        "meta_ra_of_asc_node": 311.1117,
        "meta_arg_of_pericenter": 97.2634,
        "meta_mean_anomaly": 314.0565,
        "meta_ephemeris_type": 0,
        "meta_classification_type": "U",
        "meta_norad_cat_id": 66390,
        "meta_element_set_no": 999,
        "meta_rev_at_epoch": 500,
        "meta_bstar": -0.00036122,
        "meta_mean_motion_dot": -0.00020479,
        "meta_mean_motion_ddot": 0,
        "tle_line1": "1 66390U 25257L   25336.83336806 -.00020479  00000+0 -36122-3 0  9991",
        "tle_line2": "2 66390  53.1584 311.1117 0001263  97.2634 314.0565 15.49299848  5008"
      },
      "geometry": {
        "type": "Point",
        "coordinates": [
          -81.96141578102502,
          -34.7220951362958
        ]
      }
    },
    {
      "type": "Feature",
      "properties": {
        "norad_id": 66391,
        "name": "STARLINK-35656",
        "group": "last-30-days",
        "lat": -29.059239929341526,
        "lon": -75.30346265223464,
        "alt_km": 451.44579192738456,
        "timestamp": "2025-12-03T04:52:28.419467+00:00",
        "meta_object_name": "STARLINK-35656",
        "meta_object_id": "2025-257M",
        "meta_epoch": "2025-12-02T20:00:03.000384",
        "meta_mean_motion": 15.39546722,
        "meta_eccentricity": 0.0001438,
        "meta_inclination": 53.159,
        "meta_ra_of_asc_node": 311.0595,
        "meta_arg_of_pericenter": 76.9492,
        "meta_mean_anomaly": 355.3448,
        "meta_ephemeris_type": 0,
        "meta_classification_type": "U",
        "meta_norad_cat_id": 66391,
        "meta_element_set_no": 999,
        "meta_rev_at_epoch": 500,
        "meta_bstar": 0.0022159,
        "meta_mean_motion_dot": 0.0008906,
        "meta_mean_motion_ddot": 0,
        "tle_line1": "1 66391U 25257M   25336.83336806  .00089060  00000+0  22159-2 0  9995",
        "tle_line2": "2 66391  53.1590 311.0595 0001438  76.9492 355.3448 15.39546722  5008"
      },
      "geometry": {
        "type": "Point",
        "coordinates": [
          -75.30346265223464,
          -29.059239929341526
        ]
      }
    }
  ]
}